[{"OBJECT_NAME":"OUTPOST MISSION 1","OBJECT_ID":"2023-084BK","EPOCH":"2026-03-09T23:19:35.444064","MEAN_MOTION":15.70083334,"ECCENTRICITY":0.00047289,"INCLINATION":97.5968,"RA_OF_ASC_NODE":222.1792,"ARG_OF_PERICENTER":254.2575,"MEAN_ANOMALY":105.8165,"EPHEMERIS_TYPE":0,"CLASSIFICATION_TYPE":"U","NORAD_CAT_ID":56226,"ELEMENT_SET_NO":999,"REV_AT_EPOCH":15332,"BSTAR":0.000839791,"MEAN_MOTION_DOT":0.00102103,"MEAN_MOTION_DDOT":0},{"OBJECT_NAME":"STARLINK-11411 [DTC]","OBJECT_ID":"2024-213L","EPOCH":"2026-03-09T07:08:51.004320","MEAN_MOTION":15.69714009,"ECCENTRICITY":0.00013294,"INCLINATION":53.157,"RA_OF_ASC_NODE":43.1952,"ARG_OF_PERICENTER":102.7409,"MEAN_ANOMALY":257.3758,"EPHEMERIS_TYPE":0,"CLASSIFICATION_TYPE":"U","NORAD_CAT_ID":62018,"ELEMENT_SET_NO":999,"REV_AT_EPOCH":7485,"BSTAR":0.0011424534,"MEAN_MOTION_DOT":0.00140203,"MEAN_MOTION_DDOT":0}]
